$$SOE
2460147.500000000, A.D. 2023-Jul-22 00:00:00.0000, 1.186699621740754E+08, 1.215536758677397E+08, -4.208330578762672E+07,
2460154.500000000, A.D. 2023-Jul-29 00:00:00.0000, 1.001570012069238E+08, 1.306776166502185E+08, -3.588227917270905E+07,
2460161.500000000, A.D. 2023-Aug-05 00:00:00.0000, 8.063232586235009E+07, 1.384754469539147E+08, -2.931869500500930E+07,
2460168.500000000, A.D. 2023-Aug-12 00:00:00.0000, 6.020712608217726E+07, 1.447194617441605E+08, -2.242755948704119E+07,
2460175.500000000, A.D. 2023-Aug-19 00:00:00.0000, 3.905058198656524E+07, 1.491970365637867E+08, -1.526386919948032E+07,
2460182.500000000, A.D. 2023-Aug-26 00:00:00.0000, 1.738867703427925E+07, 1.517340588062258E+08, -7.902509653687440E+06,
2460189.500000000, A.D. 2023-Sep-02 00:00:00.0000, -4.507129259588056E+06, 1.522185100331562E+08, -4.346943822247088E+05,
2460196.500000000, A.D. 2023-Sep-09 00:00:00.0000, -2.634125545062981E+07, 1.506179212288735E+08, 7.039098042140462E+06,
2460203.500000000, A.D. 2023-Sep-16 00:00:00.0000, -4.782140260057314E+07, 1.469850689290503E+08, 1.441840471223404E+07,
2460210.500000000, A.D. 2023-Sep-23 00:00:00.0000, -6.868530521163580E+07, 1.414498726364599E+08, 2.161201503971501E+07,
2460217.500000000, A.D. 2023-Sep-30 00:00:00.0000, -8.872039190701395E+07, 1.342002408346179E+08, 2.854493057587149E+07,
2460224.500000000, A.D. 2023-Oct-07 00:00:00.0000, -1.077730064144041E+08, 1.254578406212672E+08, 3.516182657828844E+07,
2460231.500000000, A.D. 2023-Oct-14 00:00:00.0000, -1.257476940615032E+08, 1.154549584688332E+08, 4.142710782707454E+07,
2460238.500000000, A.D. 2023-Oct-21 00:00:00.0000, -1.425996187079565E+08, 1.044164831498153E+08, 4.732255357419983E+07,
2460245.500000000, A.D. 2023-Oct-28 00:00:00.0000, -1.583237765859794E+08, 9.254832789223567E+07, 5.284378591252823E+07,
2460252.500000000, A.D. 2023-Nov-04 00:00:00.0000, -1.729439008374731E+08, 8.003163694457024E+07, 5.799655750911613E+07,
2460259.500000000, A.D. 2023-Nov-11 00:00:00.0000, -1.865027394483065E+08, 6.702124688678914E+07, 6.279345291920839E+07,
2460266.500000000, A.D. 2023-Nov-18 00:00:00.0000, -1.990543605241010E+08, 5.364680959881381E+07, 6.725124739763021E+07,
2460273.500000000, A.D. 2023-Nov-25 00:00:00.0000, -2.106584936185591E+08, 4.001530812141230E+07, 7.138894264734688E+07,
2460280.500000000, A.D. 2023-Dec-02 00:00:00.0000, -2.213766090444847E+08, 2.621410544262622E+07, 7.522638891490962E+07,
2460287.500000000, A.D. 2023-Dec-09 00:00:00.0000, -2.312693484734208E+08, 1.231401372319685E+07, 7.878336809494257E+07,
2460294.500000000, A.D. 2023-Dec-16 00:00:00.0000, -2.403949429332725E+08, -1.627882037575345E+06, 8.207901715236901E+07,
2460301.500000000, A.D. 2023-Dec-23 00:00:00.0000, -2.488083199201916E+08, -1.556575603532175E+07, 8.513149161986428E+07,
2460308.500000000, A.D. 2023-Dec-30 00:00:00.0000, -2.565606750548558E+08, -2.946295069030188E+07, 8.795779254407415E+07,
2460315.500000000, A.D. 2024-Jan-06 00:00:00.0000, -2.636993470787853E+08, -4.329024220089526E+07, 9.057370090994351E+07,
2460322.500000000, A.D. 2024-Jan-13 00:00:00.0000, -2.702678795059494E+08, -5.702442220459007E+07, 9.299377980738619E+07,
2460329.500000000, A.D. 2024-Jan-20 00:00:00.0000, -2.763061907708194E+08, -7.064714505554974E+07, 9.523141761233725E+07,
2460336.500000000, A.D. 2024-Jan-27 00:00:00.0000, -2.818508039862431E+08, -8.414399463603966E+07, 9.729889446332273E+07,
2460343.500000000, A.D. 2024-Feb-03 00:00:00.0000, -2.869351038515541E+08, -9.750373131051281E+07, 9.920746025388020E+07,
2460350.500000000, A.D. 2024-Feb-10 00:00:00.0000, -2.915895997747033E+08, -1.107176849956224E+08, 1.009674165971872E+08,
2460357.500000000, A.D. 2024-Feb-17 00:00:00.0000, -2.958421825650908E+08, -1.237792659002207E+08, 1.025881981104034E+08,
2460364.500000000, A.D. 2024-Feb-24 00:00:00.0000, -2.997183675190222E+08, -1.366835697437725E+08, 1.040784502735053E+08,
2460371.500000000, A.D. 2024-Mar-02 00:00:00.0000, -3.032415201983894E+08, -1.494270587896878E+08, 1.054461023590595E+08,
2460378.500000000, A.D. 2024-Mar-09 00:00:00.0000, -3.064330632953708E+08, -1.620073037669033E+08, 1.066984347182038E+08,
2460385.500000000, A.D. 2024-Mar-16 00:00:00.0000, -3.093126640763316E+08, -1.744227745055592E+08, 1.078421402089839E+08,
2460392.500000000, A.D. 2024-Mar-23 00:00:00.0000, -3.118984031985586E+08, -1.866726686228739E+08, 1.088833799786751E+08,
2460399.500000000, A.D. 2024-Mar-30 00:00:00.0000, -3.142069282726324E+08, -1.987567706660612E+08, 1.098278340907463E+08,
2460406.500000000, A.D. 2024-Apr-06 00:00:00.0000, -3.162535932598708E+08, -2.106753390001356E+08, 1.106807470783397E+08,
2460413.500000000, A.D. 2024-Apr-13 00:00:00.0000, -3.180525815696705E+08, -2.224290147447490E+08, 1.114469685874705E+08,
2460420.500000000, A.D. 2024-Apr-20 00:00:00.0000, -3.196170152043397E+08, -2.340187461899843E+08, 1.121309898413952E+08,
2460427.500000000, A.D. 2024-Apr-27 00:00:00.0000, -3.209590527925870E+08, -2.454457261283659E+08, 1.127369764301226E+08,
2460434.500000000, A.D. 2024-May-04 00:00:00.0000, -3.220899776531247E+08, -2.567113402958735E+08, 1.132687977466094E+08,
2460441.500000000, A.D. 2024-May-11 00:00:00.0000, -3.230202767750338E+08, -2.678171250005160E+08, 1.137300533981899E+08,
2460448.500000000, A.D. 2024-May-18 00:00:00.0000, -3.237597116507665E+08, -2.787647322804347E+08, 1.141240969149408E+08,
2460455.500000000, A.D. 2024-May-25 00:00:00.0000, -3.243173818499079E+08, -2.895559012708611E+08, 1.144540570474681E+08,
2460462.500000000, A.D. 2024-Jun-01 00:00:00.0000, -3.247017820875978E+08, -3.001924347571298E+08, 1.147228569082826E+08,
2460469.500000000, A.D. 2024-Jun-08 00:00:00.0000, -3.249208532638268E+08, -3.106761800555668E+08, 1.149332311678018E+08,
2460476.500000000, A.D. 2024-Jun-15 00:00:00.0000, -3.249820277138838E+08, -3.210090129564371E+08, 1.150877415219914E+08,
2460483.500000000, A.D. 2024-Jun-22 00:00:00.0000, -3.248922702403389E+08, -3.311928229626482E+08, 1.151887908050523E+08,
2460490.500000000, A.D. 2024-Jun-29 00:00:00.0000, -3.246581175468214E+08, -3.412295011595668E+08, 1.152386359568438E+08,
2460497.500000000, A.D. 2024-Jul-06 00:00:00.0000, -3.242857138694162E+08, -3.511209327882363E+08, 1.152393995460396E+08,
2460504.500000000, A.D. 2024-Jul-13 00:00:00.0000, -3.237808412464220E+08, -3.608689913683764E+08, 1.151930800300835E+08,
2460511.500000000, A.D. 2024-Jul-20 00:00:00.0000, -3.231489467559730E+08, -3.704755329486997E+08, 1.151015611416775E+08,
2460518.500000000, A.D. 2024-Jul-27 00:00:00.0000, -3.223951676805665E+08, -3.799423912168644E+08, 1.149666204838568E+08,
2460525.500000000, A.D. 2024-Aug-03 00:00:00.0000, -3.215243545934129E+08, -3.892713736558022E+08, 1.147899373668590E+08,
2460532.500000000, A.D. 2024-Aug-10 00:00:00.0000, -3.205410924382721E+08, -3.984642585945386E+08, 1.145730999502159E+08,
2460539.500000000, A.D. 2024-Aug-17 00:00:00.0000, -3.194497197662358E+08, -4.075227930012324E+08, 1.143176117576895E+08,
2460546.500000000, A.D. 2024-Aug-24 00:00:00.0000, -3.182543462887421E+08, -4.164486909311375E+08, 1.140248976229056E+08,
2460553.500000000, A.D. 2024-Aug-31 00:00:00.0000, -3.169588687972506E+08, -4.252436325987869E+08, 1.136963091051613E+08,
2460560.500000000, A.D. 2024-Sep-07 00:00:00.0000, -3.155669852314307E+08, -4.339092638703508E+08, 1.133331294010284E+08,
2460567.500000000, A.D. 2024-Sep-14 00:00:00.0000, -3.140822069413182E+08, -4.424471951148098E+08, 1.129365778686173E+08,
2460574.500000000, A.D. 2024-Sep-21 00:00:00.0000, -3.125078712881128E+08, -4.508589989463530E+08, 1.125078144227891E+08,
2460581.500000000, A.D. 2024-Sep-28 00:00:00.0000, -3.108471551741628E+08, -4.591462100402849E+08, 1.120479436168237E+08,
2460588.500000000, A.D. 2024-Oct-05 00:00:00.0000, -3.091030859253070E+08, -4.673103269837577E+08, 1.115580181055695E+08,
2460595.500000000, A.D. 2024-Oct-12 00:00:00.0000, -3.072785499701765E+08, -4.753528131499803E+08, 1.110390417951523E+08,
2460602.500000000, A.D. 2024-Oct-19 00:00:00.0000, -3.053763011427177E+08, -4.832750968396773E+08, 1.104919728430731E+08,
2460609.500000000, A.D. 2024-Oct-26 00:00:00.0000, -3.033989687076567E+08, -4.910785714680029E+08, 1.099177264687704E+08,
2460616.500000000, A.D. 2024-Nov-02 00:00:00.0000, -3.013490649118042E+08, -4.987645959256214E+08, 1.093171775591711E+08,
2460623.500000000, A.D. 2024-Nov-09 00:00:00.0000, -2.992289920186420E+08, -5.063344950766604E+08, 1.086911630803069E+08,
2460630.500000000, A.D. 2024-Nov-16 00:00:00.0000, -2.970410488489214E+08, -5.137895603792695E+08, 1.080404843091333E+08,
2460637.500000000, A.D. 2024-Nov-23 00:00:00.0000, -2.947874368241850E+08, -5.211310506668363E+08, 1.073659088920770E+08,
2460644.500000000, A.D. 2024-Nov-30 00:00:00.0000, -2.924702653444874E+08, -5.283601931224874E+08, 1.066681727212002E+08,
2460651.500000000, A.D. 2024-Dec-07 00:00:00.0000, -2.900915561166471E+08, -5.354781840178083E+08, 1.059479816360991E+08,
2460658.500000000, A.D. 2024-Dec-14 00:00:00.0000, -2.876532471539834E+08, -5.424861879845995E+08, 1.052060131257766E+08,
2460665.500000000, A.D. 2024-Dec-21 00:00:00.0000, -2.851571987951804E+08, -5.493853370543447E+08, 1.044429181517440E+08,
2460672.500000000, A.D. 2024-Dec-28 00:00:00.0000, -2.826051997961590E+08, -5.561767324280597E+08, 1.036593226781330E+08,
2460679.500000000, A.D. 2025-Jan-04 00:00:00.0000, -2.799989709220522E+08, -5.628614465968297E+08, 1.028558288733598E+08,
2460686.500000000, A.D. 2025-Jan-11 00:00:00.0000, -2.773401678828043E+08, -5.694405241499767E+08, 1.020330162938469E+08,
2460693.500000000, A.D. 2025-Jan-18 00:00:00.0000, -2.746303845493547E+08, -5.759149821867504E+08, 1.011914430658599E+08,
2460700.500000000, A.D. 2025-Jan-25 00:00:00.0000, -2.718711562249905E+08, -5.822858108037244E+08, 1.003316470107646E+08,
2460707.500000000, A.D. 2025-Feb-01 00:00:00.0000, -2.690639627988100E+08, -5.885539736862644E+08, 9.945414669976787E+07,
2460714.500000000, A.D. 2025-Feb-08 00:00:00.0000, -2.662102317379524E+08, -5.947204087831216E+08, 9.855944243983802E+07,
$$EOE